ISS (ZARYA)             
1 25544U 98067A   25328.09312817  .00014217  00000+0  26540-3 0  9995
2 25544  51.6317 234.7759 0003932 161.8932 198.2197 15.49034016539961
CSS (TIANHE)            
1 48274U 21035A   25327.87636796  .00021340  00000+0  27798-3 0  9992
2 48274  41.4649 131.1321 0010566 257.4629 102.5027 15.58163060261089
