[
  {
    "OBJECT_NAME": "ISS (ZARYA)",
    "OBJECT_ID": "1998-067A",
    "EPOCH": "2025-11-24T02:14:06.273888",
    "MEAN_MOTION": 15.49034016,
    "ECCENTRICITY": 0.0003932,
    "INCLINATION": 51.6317,
    "RA_OF_ASC_NODE": 234.7759,
    "ARG_OF_PERICENTER": 161.8932,
    "MEAN_ANOMALY": 198.2197,
    "EPHEMERIS_TYPE": 0,
    "CLASSIFICATION_TYPE": "U",
    "NORAD_CAT_ID": 25544,
    "ELEMENT_SET_NO": 999,
    "REV_AT_EPOCH": 53996,
    "BSTAR": 0.0002654,
    "MEAN_MOTION_DOT": 0.00014217,
    "MEAN_MOTION_DDOT": 0
  },
  {
    "OBJECT_NAME": "CSS (TIANHE)",
    "OBJECT_ID": "2021-035A",
    "EPOCH": "2025-11-23T21:01:58.191744",
    "MEAN_MOTION": 15.5816306,
    "ECCENTRICITY": 0.0010566,
    "INCLINATION": 41.4649,
    "RA_OF_ASC_NODE": 131.1321,
    "ARG_OF_PERICENTER": 257.4629,
    "MEAN_ANOMALY": 102.5027,
    "EPHEMERIS_TYPE": 0,
    "CLASSIFICATION_TYPE": "U",
    "NORAD_CAT_ID": 48274,
    "ELEMENT_SET_NO": 999,
    "REV_AT_EPOCH": 26108,
    "BSTAR": 0.00027798,
    "MEAN_MOTION_DOT": 0.0002134,
    "MEAN_MOTION_DDOT": 0
  }
]